ORBCOMM FM05            
1 25117U 97084F   25185.62750144  .00000863  00000+0  28047-3 0  9994
2 25117  45.0154 284.3156 0003409 265.1554  94.8908 14.45984250443135
ORBCOMM FM07            
1 25119U 97084H   25185.28586111  .00000906  00000+0  29152-3 0  9995
2 25119  45.0143 286.4435 0004231 266.6139  93.4229 14.46113779443993
ORBCOMM FM03            
1 25158U 98007B   25185.90662849  .00000605  00000+0  25802-3 0  9990
2 25158 107.9656 172.0002 0045786 219.8958 139.8813 14.34536427426588
ORBCOMM FM04            
1 25159U 98007C   25185.88778291  .00000574  00000+0  24671-3 0  9995
2 25159 107.9645 175.1954 0041525 217.5376 142.2862 14.34783325426766
ORBCOMM FM17            
1 25413U 98046A   25185.66265913  .00000486  00000+0  21762-3 0  9999
2 25413  44.9927 175.1286 0005108 295.6332  64.3987 14.35116578405856
ORBCOMM FM18            
1 25414U 98046B   25185.78092784  .00000826  00000+0  31345-3 0  9993
2 25414  44.9932  91.4970 0005921   7.2499 352.8434 14.38590168406786
ORBCOMM FM19            
1 25415U 98046C   25185.88552369  .00000847  00000+0  32153-3 0  9996
2 25415  44.9944  93.0273 0004745   1.5472  84.1940 14.38398640406750
